{
  "type": "FeatureCollection",
  "features": [
    {
      "type": "Feature",
      "properties": {
        "norad_id": 35711,
        "name": "COSMOS 2251 DEB",
        "group": "cosmos-2251-debris",
        "lat": -35.46901006918997,
        "lon": 39.02470824132474,
        "alt_km": 685.9902683206674,
        "timestamp": "2025-12-19T14:48:36.644735+00:00",
        "meta_object_name": "COSMOS 2251 DEB",
        "meta_object_id": "1993-036AQG",
        "meta_epoch": "2025-12-18T08:17:23.762688",
        "meta_mean_motion": 14.63815796,
        "meta_eccentricity": 0.00854507,
        "meta_inclination": 74.0458,
        "meta_ra_of_asc_node": 209.7036,
        "meta_arg_of_pericenter": 309.5008,
        "meta_mean_anomaly": 49.8625,
        "meta_ephemeris_type": 0,
        "meta_classification_type": "U",
        "meta_norad_cat_id": 35711,
        "meta_element_set_no": 999,
        "meta_rev_at_epoch": 87853,
        "meta_bstar": 0.00017154859,
        "meta_mean_motion_dot": 9.1e-06,
        "meta_mean_motion_ddot": 0,
        "tle_line1": "1 35711U 93036AQG 25352.34541392  .00000910  00000+0  17155-3 0  9997",
        "tle_line2": "2 35711  74.0458 209.7036 0085450 309.5008  49.8625 14.63815796878536"
      },
      "geometry": {
        "type": "Point",
        "coordinates": [
          39.02470824132474,
          -35.46901006918997
        ]
      }
    },
    {
      "type": "Feature",
      "properties": {
        "norad_id": 35716,
        "name": "COSMOS 2251 DEB",
        "group": "cosmos-2251-debris",
        "lat": -24.527871678828333,
        "lon": 8.570748945969045,
        "alt_km": 760.7596951614441,
        "timestamp": "2025-12-19T14:48:36.644747+00:00",
        "meta_object_name": "COSMOS 2251 DEB",
        "meta_object_id": "1993-036AQM",
        "meta_epoch": "2025-12-18T21:43:46.154784",
        "meta_mean_motion": 14.60092925,
        "meta_eccentricity": 0.00890052,
        "meta_inclination": 73.992,
        "meta_ra_of_asc_node": 182.4048,
        "meta_arg_of_pericenter": 21.7763,
        "meta_mean_anomaly": 44.4198,
        "meta_ephemeris_type": 0,
        "meta_classification_type": "U",
        "meta_norad_cat_id": 35716,
        "meta_element_set_no": 999,
        "meta_rev_at_epoch": 87717,
        "meta_bstar": 6.7298004e-05,
        "meta_mean_motion_dot": 3.09e-06,
        "meta_mean_motion_ddot": 0,
        "tle_line1": "1 35716U 93036AQM 25352.90539531  .00000309  00000+0  67298-4 0  9992",
        "tle_line2": "2 35716  73.9920 182.4048 0089005  21.7763  44.4198 14.60092925877177"
      },
      "geometry": {
        "type": "Point",
        "coordinates": [
          8.570748945969045,
          -24.527871678828333
        ]
      }
    },
    {
      "type": "Feature",
      "properties": {
        "norad_id": 35717,
        "name": "COSMOS 2251 DEB",
        "group": "cosmos-2251-debris",
        "lat": 17.41766068678541,
        "lon": 19.805780329347805,
        "alt_km": 771.9697451836391,
        "timestamp": "2025-12-19T14:48:36.644757+00:00",
        "meta_object_name": "COSMOS 2251 DEB",
        "meta_object_id": "1993-036AQN",
        "meta_epoch": "2025-12-15T21:36:31.335552",
        "meta_mean_motion": 14.38515087,
        "meta_eccentricity": 0.00772191,
        "meta_inclination": 74.1598,
        "meta_ra_of_asc_node": 211.7132,
        "meta_arg_of_pericenter": 70.2705,
        "meta_mean_anomaly": 290.6758,
        "meta_ephemeris_type": 0,
        "meta_classification_type": "U",
        "meta_norad_cat_id": 35717,
        "meta_element_set_no": 999,
        "meta_rev_at_epoch": 74145,
        "meta_bstar": 0.0007891897,
        "meta_mean_motion_dot": 2.473e-05,
        "meta_mean_motion_ddot": 0,
        "tle_line1": "1 35717U 93036AQN 25349.90036268  .00002473  00000+0  78919-3 0  9993",
        "tle_line2": "2 35717  74.1598 211.7132 0077219  70.2705 290.6758 14.38515087741453"
      },
      "geometry": {
        "type": "Point",
        "coordinates": [
          19.805780329347805,
          17.41766068678541
        ]
      }
    },
    {
      "type": "Feature",
      "properties": {
        "norad_id": 35718,
        "name": "COSMOS 2251 DEB",
        "group": "cosmos-2251-debris",
        "lat": -63.33345717699653,
        "lon": 81.9002742530968,
        "alt_km": 676.2528620361245,
        "timestamp": "2025-12-19T14:48:36.644768+00:00",
        "meta_object_name": "COSMOS 2251 DEB",
        "meta_object_id": "1993-036AQP",
        "meta_epoch": "2025-12-17T02:38:13.400448",
        "meta_mean_motion": 14.68736376,
        "meta_eccentricity": 0.00104417,
        "meta_inclination": 74.0312,
        "meta_ra_of_asc_node": 121.5128,
        "meta_arg_of_pericenter": 170.1123,
        "meta_mean_anomaly": 190.0255,
        "meta_ephemeris_type": 0,
        "meta_classification_type": "U",
        "meta_norad_cat_id": 35718,
        "meta_element_set_no": 999,
        "meta_rev_at_epoch": 65904,
        "meta_bstar": 0.0013106326,
        "meta_mean_motion_dot": 7.622e-05,
        "meta_mean_motion_ddot": 0,
        "tle_line1": "1 35718U 93036AQP 25351.10987732  .00007622  00000+0  13106-2 0  9997",
        "tle_line2": "2 35718  74.0312 121.5128 0010441 170.1123 190.0255 14.68736376659045"
      },
      "geometry": {
        "type": "Point",
        "coordinates": [
          81.9002742530968,
          -63.33345717699653
        ]
      }
    },
    {
      "type": "Feature",
      "properties": {
        "norad_id": 35721,
        "name": "COSMOS 2251 DEB",
        "group": "cosmos-2251-debris",
        "lat": -2.3348634544099824,
        "lon": -14.246822620250171,
        "alt_km": 842.9108581540768,
        "timestamp": "2025-12-19T14:48:36.644778+00:00",
        "meta_object_name": "COSMOS 2251 DEB",
        "meta_object_id": "1993-036AQS",
        "meta_epoch": "2025-12-09T19:36:39.465216",
        "meta_mean_motion": 14.34317214,
        "meta_eccentricity": 0.01465875,
        "meta_inclination": 73.9489,
        "meta_ra_of_asc_node": 183.1196,
        "meta_arg_of_pericenter": 330.1589,
        "meta_mean_anomaly": 29.126,
        "meta_ephemeris_type": 0,
        "meta_classification_type": "U",
        "meta_norad_cat_id": 35721,
        "meta_element_set_no": 999,
        "meta_rev_at_epoch": 57747,
        "meta_bstar": 0.0018396061,
        "meta_mean_motion_dot": 5.808e-05,
        "meta_mean_motion_ddot": 0,
        "tle_line1": "1 35721U 93036AQS 25343.81712344  .00005808  00000+0  18396-2 0  9995",
        "tle_line2": "2 35721  73.9489 183.1196 0146587 330.1589  29.1260 14.34317214577479"
      },
      "geometry": {
        "type": "Point",
        "coordinates": [
          -14.246822620250171,
          -2.3348634544099824
        ]
      }
    },
    {
      "type": "Feature",
      "properties": {
        "norad_id": 35724,
        "name": "COSMOS 2251 DEB",
        "group": "cosmos-2251-debris",
        "lat": -5.8686770370117936,
        "lon": -72.09475816071878,
        "alt_km": 700.0764445356463,
        "timestamp": "2025-12-19T14:48:36.644789+00:00",
        "meta_object_name": "COSMOS 2251 DEB",
        "meta_object_id": "1993-036AQV",
        "meta_epoch": "2025-12-18T02:36:52.242336",
        "meta_mean_motion": 14.58211099,
        "meta_eccentricity": 0.00589944,
        "meta_inclination": 74.0328,
        "meta_ra_of_asc_node": 292.4608,
        "meta_arg_of_pericenter": 84.5216,
        "meta_mean_anomaly": 276.2674,
        "meta_ephemeris_type": 0,
        "meta_classification_type": "U",
        "meta_norad_cat_id": 35724,
        "meta_element_set_no": 999,
        "meta_rev_at_epoch": 87607,
        "meta_bstar": 0.00021824888,
        "meta_mean_motion_dot": 1.001e-05,
        "meta_mean_motion_ddot": 0,
        "tle_line1": "1 35724U 93036AQV 25352.10893799  .00001001  00000+0  21825-3 0  9997",
        "tle_line2": "2 35724  74.0328 292.4608 0058994  84.5216 276.2674 14.58211099876071"
      },
      "geometry": {
        "type": "Point",
        "coordinates": [
          -72.09475816071878,
          -5.8686770370117936
        ]
      }
    },
    {
      "type": "Feature",
      "properties": {
        "norad_id": 35759,
        "name": "COSMOS 2251 DEB",
        "group": "cosmos-2251-debris",
        "lat": 17.739036821722255,
        "lon": -151.92417922064766,
        "alt_km": 649.2477289443741,
        "timestamp": "2025-12-19T14:48:36.644799+00:00",
        "meta_object_name": "COSMOS 2251 DEB",
        "meta_object_id": "1993-036ARD",
        "meta_epoch": "2025-12-17T08:38:24.236736",
        "meta_mean_motion": 14.6490617,
        "meta_eccentricity": 0.00772003,
        "meta_inclination": 74.0368,
        "meta_ra_of_asc_node": 207.1613,
        "meta_arg_of_pericenter": 324.2826,
        "meta_mean_anomaly": 35.319,
        "meta_ephemeris_type": 0,
        "meta_classification_type": "U",
        "meta_norad_cat_id": 35759,
        "meta_element_set_no": 999,
        "meta_rev_at_epoch": 66203,
        "meta_bstar": 0.00021011522,
        "meta_mean_motion_dot": 1.14e-05,
        "meta_mean_motion_ddot": 0,
        "tle_line1": "1 35759U 93036ARD 25351.36000274  .00001140  00000+0  21012-3 0  9992",
        "tle_line2": "2 35759  74.0368 207.1613 0077200 324.2826  35.3190 14.64906170662038"
      },
      "geometry": {
        "type": "Point",
        "coordinates": [
          -151.92417922064766,
          17.739036821722255
        ]
      }
    }
  ]
}